INTELSAT 21 (IS-21)     
1 38749U 12045A   26167.74467698 -.00000287  00000+0  00000+0 0  9992
2 38749   0.0122   9.4182 0001331  96.2317   9.4402  1.00270268 50525
INTELSAT 23 (IS-23)     
1 38867U 12057A   26167.48447596 -.00000286  00000+0  00000+0 0  9991
2 38867   0.0177 305.1566 0000206  51.2003  29.8210  1.00268351 49948
FM-6                    
1 39360U 13058A   26167.73306360  .00000000  00000+0  00000+0 0  9996
2 39360   0.0298  41.7756 0003260 152.1782 218.6366  1.00292192 46063
INTELSAT 30 (IS-30)     
1 40271U 14062A   26167.59477398 -.00000153  00000+0  00000+0 0  9999
2 40271   0.0247  45.2557 0001160 336.9496   1.7252  1.00271871  6780
DIRECTV 14              
1 40333U 14078B   26167.49072346 -.00000127  00000+0  00000+0 0  9999
2 40333   0.0113  18.2775 0000515 282.0583  41.8420  1.00269953 42032
DIRECTV 15              
1 40663U 15026A   26167.49072346 -.00000104  00000+0  00000+0 0  9994
2 40663   0.0163  19.7583 0000217 245.1602  73.6288  1.00270929 40451
SKY MEXICO-1            
1 40664U 15026B   26167.52669507 -.00000236  00000+0  00000+0 0  9996
2 40664   0.0172  10.3239 0002027  96.8202 268.4584  1.00270315 40446
INTELSAT 34 (IS-34)     
1 40874U 15039A   26167.74519698 -.00000288  00000+0  00000+0 0  9999
2 40874   0.0106 338.3971 0000538 348.2400 151.1586  1.00269826 39635
INTELSAT 31 (IS-31)     
1 41581U 16035A   26167.59477398 -.00000152  00000+0  00000+0 0  9995
2 41581   0.0179 271.7403 0001112 345.4107 126.7775  1.00269670 36679
INTELSAT 36 (IS-36)     
1 41747U 16053A   26167.76969663 -.00000027  00000+0  00000+0 0  9990
2 41747   0.0118   3.3034 0002182 329.3146 278.0014  1.00270799 35958
INTELSAT 32E (IS-32E)   
1 41945U 17007B   26167.74762366 -.00000272  00000+0  00000+0 0  9991
2 41945   0.0136   6.5518 0000756 304.0987 180.3273  1.00269086 34226
INTELSAT 35E (IS-35E)   
1 42818U 17041A   26167.74935699 -.00000241  00000+0  00000+0 0  9996
2 42818   0.0182 331.6195 0001598 107.3554  61.2978  1.00268682 32812
INTELSAT 37E (IS-37E)   
1 42950U 17059A   26167.75256367 -.00000143  00000+0  00000+0 0  9992
2 42950   0.0164  21.9885 0002368  84.8898  51.0770  1.00271710 32060
AZERSPACE 2 (IS-38)     
1 43632U 18074A   26167.76510329  .00000134  00000+0  00000+0 0  9999
2 43632   0.0176   5.0049 0001231  81.7615 138.8031  1.00270536 28443
HORIZONS-3E             
1 43633U 18074B   26167.71833020 -.00000033  00000+0  00000+0 0  9990
2 43633   0.0189 168.8622 0000860 107.3388  56.3811  1.00271949 28339
AT&T T-16               
1 44333U 19034A   26167.66486257 -.00000117  00000+0  00000+0 0  9998
2 44333   0.0218  61.0762 0000804 214.9067 127.4309  1.00268512 25629
INTELSAT 39 (IS-39)     
1 44476U 19049B   26167.77819411  .00000031  00000+0  00000+0 0  9990
2 44476   0.0009   0.0267 0001063 321.3193 285.7955  1.00271767 25125
GALAXY 30 (G-30)        
1 46114U 20056C   26167.73141691  .00000034  00000+0  00000+0 0  9998
2 46114   0.0145  29.2782 0002091  56.6246 317.3968  1.00271138 21282
GALAXY 33 (G-33)        
1 54026U 22128A   26167.72985691  .00000076  00000+0  00000+0 0  9992
2 54026   0.0105  28.6459 0001602  59.0278 307.0745  1.00271862 13736
GALAXY 34 (G-34)        
1 54027U 22128B   26167.73063691  .00000000  00000+0  00000+0 0  9998
2 54027   0.0271   1.5825 0001547 103.0523 294.4009  1.00275753 13903
GALAXY 31 (G-31)        
1 54243U 22153A   26167.66087588  .00000011  00000+0  00000+0 0  9991
2 54243   0.0148  38.7615 0001015  36.8277 306.2392  1.00270955  7127
GALAXY 32 (G-32)        
1 54244U 22153B   26165.95583885 -.00000197  00000+0  00000+0 0  9999
2 54244   0.0165 349.6788 0015287 254.3091 272.5395  1.00491998 13126
GALAXY 35 (G-35)        
1 54741U 22170A   26167.66642257  .00000000  00000+0  00000+0 0  9991
2 54741   0.0199  31.5669 0001850  55.3775 324.7912  1.00268487 12881
GALAXY 36 (G-36)        
1 54742U 22170B   26167.59581398 -.00000187  00000+0  00000+0 0  9999
2 54742   0.0179 256.2701 0002502 187.9042 306.1810  1.00270255 12761
GALAXY 37 (G-37)        
1 57493U 23112A   26166.94664088  .00000049  00000+0  00000+0 0  9994
2 57493   0.0257  63.8054 0001699  18.0301  36.1756  1.00271514 10536
